{
  "type": "FeatureCollection",
  "features": [
    {
      "type": "Feature",
      "properties": {
        "norad_id": 29968,
        "name": "FENGYUN 1C DEB",
        "group": "fengyun-1c-debris",
        "lat": 40.99727832675322,
        "lon": 163.90778734912774,
        "alt_km": 917.1442793540409,
        "timestamp": "2025-12-12T09:49:09.004240+00:00",
        "meta_object_name": "FENGYUN 1C DEB",
        "meta_object_id": "1999-025KS",
        "meta_epoch": "2025-12-11T23:11:01.942944",
        "meta_mean_motion": 14.07256421,
        "meta_eccentricity": 0.0090121,
        "meta_inclination": 98.8044,
        "meta_ra_of_asc_node": 335.7341,
        "meta_arg_of_pericenter": 356.9485,
        "meta_mean_anomaly": 57.0036,
        "meta_ephemeris_type": 0,
        "meta_classification_type": "U",
        "meta_norad_cat_id": 29968,
        "meta_element_set_no": 999,
        "meta_rev_at_epoch": 97038,
        "meta_bstar": 0.00031716,
        "meta_mean_motion_dot": 5.09e-06,
        "meta_mean_motion_ddot": 0,
        "tle_line1": "1 29968U 99025KS  25345.96599471  .00000509  00000+0  31716-3 0  9992",
        "tle_line2": "2 29968  98.8044 335.7341 0090121 356.9485  57.0036 14.07256421970388"
      },
      "geometry": {
        "type": "Point",
        "coordinates": [
          163.90778734912774,
          40.99727832675322
        ]
      }
    },
    {
      "type": "Feature",
      "properties": {
        "norad_id": 29969,
        "name": "FENGYUN 1C DEB",
        "group": "fengyun-1c-debris",
        "lat": 15.136891124713,
        "lon": -106.89568578646183,
        "alt_km": 793.2983009879581,
        "timestamp": "2025-12-12T09:49:09.004250+00:00",
        "meta_object_name": "FENGYUN 1C DEB",
        "meta_object_id": "1999-025KT",
        "meta_epoch": "2025-12-11T04:49:26.101920",
        "meta_mean_motion": 14.33193839,
        "meta_eccentricity": 0.00417649,
        "meta_inclination": 98.7703,
        "meta_ra_of_asc_node": 69.4877,
        "meta_arg_of_pericenter": 55.2524,
        "meta_mean_anomaly": 359.0146,
        "meta_ephemeris_type": 0,
        "meta_classification_type": "U",
        "meta_norad_cat_id": 29969,
        "meta_element_set_no": 999,
        "meta_rev_at_epoch": 97640,
        "meta_bstar": 0.0025726709,
        "meta_mean_motion_dot": 7.099e-05,
        "meta_mean_motion_ddot": 0,
        "tle_line1": "1 29969U 99025KT  25345.20099655  .00007099  00000+0  25727-2 0  9994",
        "tle_line2": "2 29969  98.7703  69.4877 0041764  55.2524 359.0146 14.33193839976405"
      },
      "geometry": {
        "type": "Point",
        "coordinates": [
          -106.89568578646183,
          15.136891124713
        ]
      }
    },
    {
      "type": "Feature",
      "properties": {
        "norad_id": 29970,
        "name": "FENGYUN 1C DEB",
        "group": "fengyun-1c-debris",
        "lat": -3.1720632736025185,
        "lon": -84.79788103946682,
        "alt_km": 812.1005332087834,
        "timestamp": "2025-12-12T09:49:09.004261+00:00",
        "meta_object_name": "FENGYUN 1C DEB",
        "meta_object_id": "1999-025KU",
        "meta_epoch": "2025-12-11T17:21:41.730624",
        "meta_mean_motion": 14.43947854,
        "meta_eccentricity": 0.00906999,
        "meta_inclination": 98.8079,
        "meta_ra_of_asc_node": 274.0002,
        "meta_arg_of_pericenter": 190.5498,
        "meta_mean_anomaly": 203.6103,
        "meta_ephemeris_type": 0,
        "meta_classification_type": "U",
        "meta_norad_cat_id": 29970,
        "meta_element_set_no": 999,
        "meta_rev_at_epoch": 99106,
        "meta_bstar": 0.00072088193,
        "meta_mean_motion_dot": 2.538e-05,
        "meta_mean_motion_ddot": 0,
        "tle_line1": "1 29970U 99025KU  25345.72339966  .00002538  00000+0  72088-3 0  9991",
        "tle_line2": "2 29970  98.8079 274.0002 0090699 190.5498 203.6103 14.43947854991063"
      },
      "geometry": {
        "type": "Point",
        "coordinates": [
          -84.79788103946682,
          -3.1720632736025185
        ]
      }
    },
    {
      "type": "Feature",
      "properties": {
        "norad_id": 29971,
        "name": "FENGYUN 1C DEB",
        "group": "fengyun-1c-debris",
        "lat": 5.630496911738489,
        "lon": 25.321616216470396,
        "alt_km": 850.095282278342,
        "timestamp": "2025-12-12T09:49:09.004271+00:00",
        "meta_object_name": "FENGYUN 1C DEB",
        "meta_object_id": "1999-025KV",
        "meta_epoch": "2025-12-12T01:36:25.235136",
        "meta_mean_motion": 14.18175444,
        "meta_eccentricity": 0.0023839,
        "meta_inclination": 98.6835,
        "meta_ra_of_asc_node": 25.8502,
        "meta_arg_of_pericenter": 169.6407,
        "meta_mean_anomaly": 250.2919,
        "meta_ephemeris_type": 0,
        "meta_classification_type": "U",
        "meta_norad_cat_id": 29971,
        "meta_element_set_no": 999,
        "meta_rev_at_epoch": 97330,
        "meta_bstar": 0.0012733,
        "meta_mean_motion_dot": 2.581e-05,
        "meta_mean_motion_ddot": 0,
        "tle_line1": "1 29971U 99025KV  25346.06695874  .00002581  00000+0  12733-2 0  9991",
        "tle_line2": "2 29971  98.6835  25.8502 0023839 169.6407 250.2919 14.18175444973308"
      },
      "geometry": {
        "type": "Point",
        "coordinates": [
          25.321616216470396,
          5.630496911738489
        ]
      }
    },
    {
      "type": "Feature",
      "properties": {
        "norad_id": 29972,
        "name": "FENGYUN 1C DEB",
        "group": "fengyun-1c-debris",
        "lat": 65.9479911815112,
        "lon": -160.90862182811415,
        "alt_km": 673.1552835497914,
        "timestamp": "2025-12-12T09:49:09.004281+00:00",
        "meta_object_name": "FENGYUN 1C DEB",
        "meta_object_id": "1999-025KW",
        "meta_epoch": "2025-12-11T23:44:59.858016",
        "meta_mean_motion": 14.66330864,
        "meta_eccentricity": 0.0064888,
        "meta_inclination": 98.9218,
        "meta_ra_of_asc_node": 358.0278,
        "meta_arg_of_pericenter": 14.7142,
        "meta_mean_anomaly": 43.5042,
        "meta_ephemeris_type": 0,
        "meta_classification_type": "U",
        "meta_norad_cat_id": 29972,
        "meta_element_set_no": 999,
        "meta_rev_at_epoch": 99475,
        "meta_bstar": 0.0019488,
        "meta_mean_motion_dot": 0.00011056,
        "meta_mean_motion_ddot": 0,
        "tle_line1": "1 29972U 99025KW  25345.98958169  .00011056  00000+0  19488-2 0  9992",
        "tle_line2": "2 29972  98.9218 358.0278 0064888  14.7142  43.5042 14.66330864994757"
      },
      "geometry": {
        "type": "Point",
        "coordinates": [
          -160.90862182811415,
          65.9479911815112
        ]
      }
    },
    {
      "type": "Feature",
      "properties": {
        "norad_id": 29973,
        "name": "FENGYUN 1C DEB",
        "group": "fengyun-1c-debris",
        "lat": -27.730871063262125,
        "lon": -8.397197153991149,
        "alt_km": 919.9101308154541,
        "timestamp": "2025-12-12T09:49:09.004292+00:00",
        "meta_object_name": "FENGYUN 1C DEB",
        "meta_object_id": "1999-025KX",
        "meta_epoch": "2025-12-11T23:58:35.918976",
        "meta_mean_motion": 14.06534492,
        "meta_eccentricity": 0.0059266,
        "meta_inclination": 98.8426,
        "meta_ra_of_asc_node": 346.5081,
        "meta_arg_of_pericenter": 151.029,
        "meta_mean_anomaly": 265.5824,
        "meta_ephemeris_type": 0,
        "meta_classification_type": "U",
        "meta_norad_cat_id": 29973,
        "meta_element_set_no": 999,
        "meta_rev_at_epoch": 96708,
        "meta_bstar": 0.00088587,
        "meta_mean_motion_dot": 1.447e-05,
        "meta_mean_motion_ddot": 0,
        "tle_line1": "1 29973U 99025KX  25345.99902684  .00001447  00000+0  88587-3 0  9995",
        "tle_line2": "2 29973  98.8426 346.5081 0059266 151.0290 265.5824 14.06534492967082"
      },
      "geometry": {
        "type": "Point",
        "coordinates": [
          -8.397197153991149,
          -27.730871063262125
        ]
      }
    },
    {
      "type": "Feature",
      "properties": {
        "norad_id": 29974,
        "name": "FENGYUN 1C DEB",
        "group": "fengyun-1c-debris",
        "lat": -1.5811350877331165,
        "lon": -109.66366187479808,
        "alt_km": 850.7172846756557,
        "timestamp": "2025-12-12T09:49:09.004302+00:00",
        "meta_object_name": "FENGYUN 1C DEB",
        "meta_object_id": "1999-025KY",
        "meta_epoch": "2025-12-11T16:43:27.389856",
        "meta_mean_motion": 14.14841213,
        "meta_eccentricity": 0.00468454,
        "meta_inclination": 98.8934,
        "meta_ra_of_asc_node": 69.8744,
        "meta_arg_of_pericenter": 85.1226,
        "meta_mean_anomaly": 69.8617,
        "meta_ephemeris_type": 0,
        "meta_classification_type": "U",
        "meta_norad_cat_id": 29974,
        "meta_element_set_no": 999,
        "meta_rev_at_epoch": 96910,
        "meta_bstar": 0.001889622,
        "meta_mean_motion_dot": 3.643e-05,
        "meta_mean_motion_ddot": 0,
        "tle_line1": "1 29974U 99025KY  25345.69684479  .00003643  00000+0  18896-2 0  9997",
        "tle_line2": "2 29974  98.8934  69.8744 0046845  85.1226  69.8617 14.14841213969104"
      },
      "geometry": {
        "type": "Point",
        "coordinates": [
          -109.66366187479808,
          -1.5811350877331165
        ]
      }
    }
  ]
}